STARLINK-32314          
1 61709U 24196C   25244.76356107  .00000241  00000+0  20263-4 0  9990
2 61709  53.1598 258.7048 0001190  86.6670 273.4467 15.30192659 48235
STARLINK-32404          
1 61710U 24196D   25245.06070980 -.00003605  00000+0 -10971-3 0  9991
2 61710  53.1562 257.7148 0001263  67.1017 293.0117 15.30178596 48276
STARLINK-32312          
1 61711U 24196E   25244.42959825  .00000044  00000+0  13614-4 0  9995
2 61711  53.1604 260.1747 0001254  81.2176 278.8966 15.30191082 48188
STARLINK-32343          
1 61712U 24196F   25245.05014533  .00000593  00000+0  32147-4 0  9995
2 61712  53.1586 257.6509 0001266  77.2865 282.8278 15.30194058 48275
STARLINK-32467          
1 61713U 24196G   25245.00698948 -.00000023  00000+0  11358-4 0  9999
2 61713  53.1586 258.0933 0000993  92.8498 267.2617 15.30197540 48265
STARLINK-32440          
1 61714U 24196H   25245.30507368  .00001637  00000+0  67397-4 0  9993
2 61714  53.1596 256.3977 0001264  77.3122 282.8020 15.30189234 48318
STARLINK-32459          
1 61715U 24196J   25245.29241035  .00000181  00000+0  18252-4 0  9997
2 61715  53.1599 256.3179 0001332  84.6267 275.4886 15.30191190 48315
STARLINK-32465          
1 61716U 24196K   25245.06703311  .00000545  00000+0  30527-4 0  9996
2 61716  53.1580 257.7563 0001090  92.0497 268.0629 15.30200286 48272
STARLINK-32457          
1 61717U 24196L   25245.28924521 -.00000676  00000+0 -10717-4 0  9995
2 61717  53.1592 256.2978 0001235  79.2089 280.9050 15.30188102 48313
STARLINK-32591          
1 61718U 24196M   25244.72829021 -.00000190  00000+0  57247-5 0  9993
2 61718  53.1599 246.3765 0001342  90.6643 269.4512 15.30187763 48404
STARLINK-32344          
1 61719U 24196N   25244.33907020  .00000482  00000+0  28407-4 0  9995
2 61719  53.1590 261.0332 0001208  82.8234 277.2904 15.30194707 48161
STARLINK-32322          
1 61720U 24196P   25244.74361799 -.00000394  00000+0 -11874-5 0  9994
2 61720  53.1591 259.2912 0001109  78.0781 282.0344 15.30204510 48224
STARLINK-32469          
1 61721U 24196Q   25244.76039533  .00001308  00000+0  56286-4 0  9994
2 61721  53.1594 258.6820 0001369  95.6862 264.4295 15.30197488 48237
STARLINK-32438          
1 61722U 24196R   25245.06386085  .00001253  00000+0  54417-4 0  9999
2 61722  53.1586 257.7351 0001034  87.0795 273.0324 15.30202615 48279
STARLINK-32540          
1 61723U 24196S   25245.19444027 -.00001106  00000+0 -25196-4 0  9996
2 61723  53.1584 221.0700 0001836 107.0944 253.0258 15.30205613 48791
STARLINK-32528          
1 61724U 24196T   25244.74678862 -.00000040  00000+0  10770-4 0  9990
2 61724  53.1594 259.3119 0001145  96.2722 263.8410 15.30194074 47029
