[{"OBJECT_NAME":"STARLINK-32314","OBJECT_ID":"2024-196C","EPOCH":"2025-09-01T18:19:31.676448","MEAN_MOTION":15.30192659,"ECCENTRICITY":0.00011905,"INCLINATION":53.1598,"RA_OF_ASC_NODE":258.7048,"ARG_OF_PERICENTER":86.667,"MEAN_ANOMALY":273.4467,"EPHEMERIS_TYPE":0,"CLASSIFICATION_TYPE":"U","NORAD_CAT_ID":61709,"ELEMENT_SET_NO":999,"REV_AT_EPOCH":4823,"BSTAR":2.0263094e-5,"MEAN_MOTION_DOT":2.41e-6,"MEAN_MOTION_DDOT":0},{"OBJECT_NAME":"STARLINK-32404","OBJECT_ID":"2024-196D","EPOCH":"2025-09-02T01:27:25.326720","MEAN_MOTION":15.30178596,"ECCENTRICITY":0.00012635,"INCLINATION":53.1562,"RA_OF_ASC_NODE":257.7148,"ARG_OF_PERICENTER":67.1017,"MEAN_ANOMALY":293.0117,"EPHEMERIS_TYPE":0,"CLASSIFICATION_TYPE":"U","NORAD_CAT_ID":61710,"ELEMENT_SET_NO":999,"REV_AT_EPOCH":4827,"BSTAR":-0.00010970557,"MEAN_MOTION_DOT":-3.605e-5,"MEAN_MOTION_DDOT":0},{"OBJECT_NAME":"STARLINK-32312","OBJECT_ID":"2024-196E","EPOCH":"2025-09-01T10:18:37.288800","MEAN_MOTION":15.30191082,"ECCENTRICITY":0.00012541,"INCLINATION":53.1604,"RA_OF_ASC_NODE":260.1747,"ARG_OF_PERICENTER":81.2176,"MEAN_ANOMALY":278.8966,"EPHEMERIS_TYPE":0,"CLASSIFICATION_TYPE":"U","NORAD_CAT_ID":61711,"ELEMENT_SET_NO":999,"REV_AT_EPOCH":4818,"BSTAR":1.3614397e-5,"MEAN_MOTION_DOT":4.4e-7,"MEAN_MOTION_DDOT":0},{"OBJECT_NAME":"STARLINK-32343","OBJECT_ID":"2024-196F","EPOCH":"2025-09-02T01:12:12.556512","MEAN_MOTION":15.30194058,"ECCENTRICITY":0.00012668,"INCLINATION":53.1586,"RA_OF_ASC_NODE":257.6509,"ARG_OF_PERICENTER":77.2865,"MEAN_ANOMALY":282.8278,"EPHEMERIS_TYPE":0,"CLASSIFICATION_TYPE":"U","NORAD_CAT_ID":61712,"ELEMENT_SET_NO":999,"REV_AT_EPOCH":4827,"BSTAR":3.2147221e-5,"MEAN_MOTION_DOT":5.93e-6,"MEAN_MOTION_DDOT":0},{"OBJECT_NAME":"STARLINK-32467","OBJECT_ID":"2024-196G","EPOCH":"2025-09-02T00:10:03.891072","MEAN_MOTION":15.3019754,"ECCENTRICITY":9.93e-5,"INCLINATION":53.1586,"RA_OF_ASC_NODE":258.0933,"ARG_OF_PERICENTER":92.8498,"MEAN_ANOMALY":267.2617,"EPHEMERIS_TYPE":0,"CLASSIFICATION_TYPE":"U","NORAD_CAT_ID":61713,"ELEMENT_SET_NO":999,"REV_AT_EPOCH":4826,"BSTAR":1.1357554e-5,"MEAN_MOTION_DOT":-2.3e-7,"MEAN_MOTION_DDOT":0},{"OBJECT_NAME":"STARLINK-32440","OBJECT_ID":"2024-196H","EPOCH":"2025-09-02T07:19:18.365952","MEAN_MOTION":15.30189234,"ECCENTRICITY":0.00012644,"INCLINATION":53.1596,"RA_OF_ASC_NODE":256.3977,"ARG_OF_PERICENTER":77.3122,"MEAN_ANOMALY":282.802,"EPHEMERIS_TYPE":0,"CLASSIFICATION_TYPE":"U","NORAD_CAT_ID":61714,"ELEMENT_SET_NO":999,"REV_AT_EPOCH":4831,"BSTAR":6.739711e-5,"MEAN_MOTION_DOT":1.637e-5,"MEAN_MOTION_DDOT":0},{"OBJECT_NAME":"STARLINK-32459","OBJECT_ID":"2024-196J","EPOCH":"2025-09-02T07:01:04.254240","MEAN_MOTION":15.3019119,"ECCENTRICITY":0.00013322,"INCLINATION":53.1599,"RA_OF_ASC_NODE":256.3179,"ARG_OF_PERICENTER":84.6267,"MEAN_ANOMALY":275.4886,"EPHEMERIS_TYPE":0,"CLASSIFICATION_TYPE":"U","NORAD_CAT_ID":61715,"ELEMENT_SET_NO":999,"REV_AT_EPOCH":4831,"BSTAR":1.8252001e-5,"MEAN_MOTION_DOT":1.81e-6,"MEAN_MOTION_DDOT":0},{"OBJECT_NAME":"STARLINK-32465","OBJECT_ID":"2024-196K","EPOCH":"2025-09-02T01:36:31.660704","MEAN_MOTION":15.30200286,"ECCENTRICITY":0.00010901,"INCLINATION":53.158,"RA_OF_ASC_NODE":257.7563,"ARG_OF_PERICENTER":92.0497,"MEAN_ANOMALY":268.0629,"EPHEMERIS_TYPE":0,"CLASSIFICATION_TYPE":"U","NORAD_CAT_ID":61716,"ELEMENT_SET_NO":999,"REV_AT_EPOCH":4827,"BSTAR":3.0527183e-5,"MEAN_MOTION_DOT":5.45e-6,"MEAN_MOTION_DDOT":0},{"OBJECT_NAME":"STARLINK-32457","OBJECT_ID":"2024-196L","EPOCH":"2025-09-02T06:56:30.786144","MEAN_MOTION":15.30188102,"ECCENTRICITY":0.00012358,"INCLINATION":53.1592,"RA_OF_ASC_NODE":256.2978,"ARG_OF_PERICENTER":79.2089,"MEAN_ANOMALY":280.905,"EPHEMERIS_TYPE":0,"CLASSIFICATION_TYPE":"U","NORAD_CAT_ID":61717,"ELEMENT_SET_NO":999,"REV_AT_EPOCH":4831,"BSTAR":-1.0717438e-5,"MEAN_MOTION_DOT":-6.76e-6,"MEAN_MOTION_DDOT":0},{"OBJECT_NAME":"STARLINK-32591","OBJECT_ID":"2024-196M","EPOCH":"2025-09-01T17:28:44.274144","MEAN_MOTION":15.30187763,"ECCENTRICITY":0.00013425,"INCLINATION":53.1599,"RA_OF_ASC_NODE":246.3765,"ARG_OF_PERICENTER":90.6643,"MEAN_ANOMALY":269.4512,"EPHEMERIS_TYPE":0,"CLASSIFICATION_TYPE":"U","NORAD_CAT_ID":61718,"ELEMENT_SET_NO":999,"REV_AT_EPOCH":4840,"BSTAR":5.724695e-6,"MEAN_MOTION_DOT":-1.9e-6,"MEAN_MOTION_DDOT":0},{"OBJECT_NAME":"STARLINK-32344","OBJECT_ID":"2024-196N","EPOCH":"2025-09-01T08:08:15.665280","MEAN_MOTION":15.30194707,"ECCENTRICITY":0.00012085,"INCLINATION":53.159,"RA_OF_ASC_NODE":261.0332,"ARG_OF_PERICENTER":82.8234,"MEAN_ANOMALY":277.2904,"EPHEMERIS_TYPE":0,"CLASSIFICATION_TYPE":"U","NORAD_CAT_ID":61719,"ELEMENT_SET_NO":999,"REV_AT_EPOCH":4816,"BSTAR":2.8407036e-5,"MEAN_MOTION_DOT":4.82e-6,"MEAN_MOTION_DDOT":0},{"OBJECT_NAME":"STARLINK-32322","OBJECT_ID":"2024-196P","EPOCH":"2025-09-01T17:50:48.594336","MEAN_MOTION":15.3020451,"ECCENTRICITY":0.00011092,"INCLINATION":53.1591,"RA_OF_ASC_NODE":259.2912,"ARG_OF_PERICENTER":78.0781,"MEAN_ANOMALY":282.0344,"EPHEMERIS_TYPE":0,"CLASSIFICATION_TYPE":"U","NORAD_CAT_ID":61720,"ELEMENT_SET_NO":999,"REV_AT_EPOCH":4822,"BSTAR":-1.187417e-6,"MEAN_MOTION_DOT":-3.94e-6,"MEAN_MOTION_DDOT":0},{"OBJECT_NAME":"STARLINK-32469","OBJECT_ID":"2024-196Q","EPOCH":"2025-09-01T18:14:58.156512","MEAN_MOTION":15.30197488,"ECCENTRICITY":0.00013693,"INCLINATION":53.1594,"RA_OF_ASC_NODE":258.682,"ARG_OF_PERICENTER":95.6862,"MEAN_ANOMALY":264.4295,"EPHEMERIS_TYPE":0,"CLASSIFICATION_TYPE":"U","NORAD_CAT_ID":61721,"ELEMENT_SET_NO":999,"REV_AT_EPOCH":4823,"BSTAR":5.6285824e-5,"MEAN_MOTION_DOT":1.308e-5,"MEAN_MOTION_DDOT":0},{"OBJECT_NAME":"STARLINK-32438","OBJECT_ID":"2024-196R","EPOCH":"2025-09-02T01:31:57.577440","MEAN_MOTION":15.30202615,"ECCENTRICITY":0.0001034,"INCLINATION":53.1586,"RA_OF_ASC_NODE":257.7351,"ARG_OF_PERICENTER":87.0795,"MEAN_ANOMALY":273.0324,"EPHEMERIS_TYPE":0,"CLASSIFICATION_TYPE":"U","NORAD_CAT_ID":61722,"ELEMENT_SET_NO":999,"REV_AT_EPOCH":4827,"BSTAR":5.4417396e-5,"MEAN_MOTION_DOT":1.253e-5,"MEAN_MOTION_DDOT":0},{"OBJECT_NAME":"STARLINK-32540","OBJECT_ID":"2024-196S","EPOCH":"2025-09-02T04:39:59.639328","MEAN_MOTION":15.30205613,"ECCENTRICITY":0.00018362,"INCLINATION":53.1584,"RA_OF_ASC_NODE":221.07,"ARG_OF_PERICENTER":107.0944,"MEAN_ANOMALY":253.0258,"EPHEMERIS_TYPE":0,"CLASSIFICATION_TYPE":"U","NORAD_CAT_ID":61723,"ELEMENT_SET_NO":999,"REV_AT_EPOCH":4879,"BSTAR":-2.5195997e-5,"MEAN_MOTION_DOT":-1.106e-5,"MEAN_MOTION_DDOT":0},{"OBJECT_NAME":"STARLINK-32528","OBJECT_ID":"2024-196T","EPOCH":"2025-09-01T17:55:22.536768","MEAN_MOTION":15.30194074,"ECCENTRICITY":0.00011451,"INCLINATION":53.1594,"RA_OF_ASC_NODE":259.3119,"ARG_OF_PERICENTER":96.2722,"MEAN_ANOMALY":263.841,"EPHEMERIS_TYPE":0,"CLASSIFICATION_TYPE":"U","NORAD_CAT_ID":61724,"ELEMENT_SET_NO":999,"REV_AT_EPOCH":4702,"BSTAR":1.0769555e-5,"MEAN_MOTION_DOT":-4.0e-7,"MEAN_MOTION_DDOT":0}]
